STARLINK-2538_new
1 18300C 21036AA  21326.17918183  .00004211  00000-0  28219-3 0  3266
2 18300  53.0559 292.9407 0001795  57.6526  64.4582 15.06384162    16
STARLINK-2538_old
1 28300C 21036AA  21325.15069943 -.00020168  00000-0 -13513-2 0  3254
2 28300  53.0563 297.5573 0001789  58.0684 243.4515 15.06418691    19
